#dP2023  7 20 18  0  0.00000000      96 __u+U ITR00 EXT  IAC
## 2271 410400.00000000   900.00000000 60145 0.7500000000000
+  118   C06C07C08C09C10C11C12C13C14C16C19C20C21C22C23C24C25
+        C26C27C28C29C30C32C33C34C35C36C37C38C39C40C41C42C43
+        C44C45C46E02E03E04E05E07E08E09E10E11E12E13E14E15E18
+        E19E21E24E25E26E27E30E31E34E36G01G02G03G04G05G06G07
+        G08G09G10G11G12G13G14G15G16G17G18G19G20G21G22G23G24
+        G25G26G27G28G29G30G31G32J02J03J04R01R02R03R04R05R07
+        R08R09R11R12R13R14R15R16R17R18R19R20R21R22R24R25  0
++        10 10  9 11 10  8  9 10 10 11  9  9 11 10  8  8  8
++         8  7  7  9  9  9  8  6  8  8  6 10  9 10  6  9  8
++         9  7  8  8  7  8  8  7  7  9  7  7  7  6  7  6  8
++         8  8  8  8  8  8  7  8  6  7  8  8  8  7  7  7  7
++         7  7  7  6  7  7  8  7  7  7  6  7  8  8  8  8  7
++         7  7  8  7  9  7  8  7  9  9  9  8  7  8  7  9  9
++         8  8  7  8  9  7  7  7  8  8  9  9  7  8  8  8  0
%c M  cc GPS ccc cccc cccc cccc cccc ccccc ccccc ccccc ccccc
%c cc cc ccc ccc cccc cccc cccc cccc ccccc ccccc ccccc ccccc
%f  0.0000000  0.000000000  0.00000000000  0.000000000000000
%f  0.0000000  0.000000000  0.00000000000  0.000000000000000
%i    0    0    0    0      0      0      0      0         0
%i    0    0    0    0      0      0      0      0         0
/* IAC                                ULTRA-RAPID PREDICTION
/* S/V CLOCKS ARE ALIGNED TO GNSS TIME                      
/* G:C1WC2W R:C1PC2P E:C1XC5X C:C2IC6I J:C1CC2S             
/* PCV:IGS20_2247 OL/AL:FES2004  NONE     YN ORB:CoN CLK:CoN
*  2023 07 21 13 45  0.00000000
PC06  -5783.882923  24496.736400  33885.357458    596.638997
PC07 -16710.168542  34352.806678 -17978.217636   -356.801251
PC08  -4044.523560  39699.350412 -13296.658851    420.253614
PC09   4692.962434  28478.722949  31343.523300    389.619088
PC10 -11371.640556  34284.175982 -21852.657069   -121.129039
PC11 -23425.473905   3718.318567 -14663.299498    737.793980
PC12 -26400.876331  -8653.509132   2745.385845    805.877018
PC13    591.025484  41440.283247  -6742.395533    319.668773
PC14 -21927.476870  15199.349716  -8277.704815     94.439821
PC16  -6548.912545  23690.802220  34530.667476     -2.854947
PC19  18594.782015 -20768.222916   -900.803103   -943.765641
PC20  21940.024955  -8596.615764  14928.598934    419.922166
PC21 -12286.792205  -9805.994118 -23047.461781   -937.743906
PC22   4329.948572 -21605.783306 -17110.622096   -386.427015
PC23   3148.273309  26933.175351   6600.592692   -934.881170
PC24 -17335.215469  -3423.738313  21599.921164    197.233074
PC25  -9049.863543  17671.983967  19596.980986    172.629843
PC26 -15326.270484 -20350.153468  11417.325183   -151.888943
PC27  22355.495103  13006.514376 -10510.215362    172.848356
PC28   6211.591844  16838.669140 -21366.382214    128.936469
PC29  15645.846633 -11219.765555  20190.526683    150.250408
PC30  27237.591030   1300.660193   5959.586856     -2.464245
PC32  12267.879131   9849.463977  23058.286822   -537.382411
PC33 -18522.182696  20873.367778    820.532561   -918.303442
PC34 -26936.541014   -332.299757  -7269.475915    219.682019
PC35  -6345.872082 -16665.400510  21443.293644    584.089316
PC36   9909.176406 -16793.347721 -19935.741865   -317.645708
PC37  14455.998255  21372.278473 -10584.069525   -795.848484
PC38  -8798.179858  36039.777502 -19845.301751     93.030312
PC39 -12942.680549  20590.104623  34469.988367     -3.909918
PC40 -24774.753185  29617.108690 -17222.247138    -30.156006
PC41  -4864.595426  21906.497905  16646.163536   -899.350732
PC42 -21702.763869   7400.024475 -15887.267170   -604.529229
PC43 -16483.265533  10853.129654 -19736.338000     31.721643
PC44 -22688.674270 -12281.109040  10588.944424    175.530781
PC45  -3540.584253 -27007.191209  -6111.554133     -4.489490
PC46  16988.098294   1828.298686 -22052.145985    -70.533065
PE02   8875.874126  19720.929316 -20203.284784     51.041825
PE03  17231.898870  10984.382555  21407.423045    -38.184508
PE04 -28602.033565   2231.766818  -7293.348086   -171.634095
PE05  -4348.590972  17925.606870  23156.352169      1.646587
PE07  23490.790604 -14192.713329 -11063.876548    -61.562903
PE08  28501.794697  -2024.317582   7700.045644   -117.877353
PE09 -23610.947694  14100.961022  10976.272608    -92.404196
PE10 -19434.576477    854.921088 -22326.487929   -550.163270
PE11 -12103.570125  10635.471289 -24847.582419   2539.987317
PE12 -23150.824658  -8132.105293 -16556.984748   -626.902211
PE13  12631.269326  -9951.416118  24846.933399    -19.337898
PE14  24464.546990  -1252.522161  -3507.349328    288.558887
PE15  23212.146220   8481.788105  16290.182881    -38.840207
PE18 -29171.905293  10818.452173  -7359.687514    321.595945
PE19 -14698.980120 -12318.765765 -22539.336172  -2027.070469
PE21   4039.663014 -28795.187898   5537.318611   -542.013115
PE24 -15688.197997  21079.444493  13603.552794   -221.770126
PE25  -4300.308512  28822.321297  -5182.513830   -608.641716
PE26  -5767.227862 -22644.537848  18169.864940    169.497799
PE27  15348.283518 -21660.910401 -13089.138830   -104.717718
PE30  17467.423596  -1221.112600 -23870.101502   -353.567922
PE31 -17499.621478   1837.568832  23814.480719     -0.878586
PE34  20095.356441  21660.258806  -1683.361724    -57.269992
PE36   5192.119236  22312.456575 -18751.931581    -89.228283
PG01  20800.278809  13025.142157  10237.875395    171.956479
PG02  21496.424837  15183.322960   4648.090750   -573.893135
PG03  14296.569806   3605.292221  21947.192346   -223.141069
PG04  25080.826049   1327.641544   8828.730147    102.149338
PG05  -7217.983398 -19195.517251 -16999.905002   -135.745442
PG06   1327.932027 -17752.086887  19738.967664    575.737773
PG07  17385.849066  -1954.816731 -19651.075055    118.719976
PG08  18180.771447   8174.444311 -17816.751190   -133.285285
PG09  25677.140705  -6873.891903   -398.776346   -106.743243
PG10 -10997.340709  23277.709743  -5633.254535    -46.047418
PG11 -11072.128918 -22511.488016   8796.582630   -285.561377
PG12 -12780.762359  -8275.921141  21492.357031   -403.373878
PG13  -9983.177647 -13437.938230 -20853.948724    549.988499
PG14  13532.620549 -21126.815884  -8444.335344    129.275398
PG15 -19464.150837  -6357.116595 -17519.452095     60.103114
PG16   2081.104763  22023.547267 -14662.839894   -478.164204
PG17  16933.607928 -13683.224670  15715.945895    721.395115
PG18 -15220.172808   4717.719816 -21278.980876   -353.750524
PG19   9587.180826 -14660.414583  19647.426339    346.883540
PG20  -2393.791242 -25377.640641  -7762.238666    421.484846
PG21  20974.518756  17015.788179   1937.066782    151.883795
PG22  -5600.113434  15664.521679  21126.480124    515.932628
PG23 -15325.491039  14235.850587 -16266.184252     45.728367
PG24 -21859.224629 -14489.138491   5074.088048   -264.926294
PG25 -16336.134074   6411.023660  19546.069015    457.462899
PG26  -3492.404276  25953.875769  -3238.911348    235.767040
PG27   6290.025629  14047.257856 -21926.767168     -7.428202
PG28  -2831.617623  17048.449679  20149.503310     81.609719
PG29 -26356.491648   3658.386294    576.216958   -606.050190
PG30  10564.158213 -11679.678860 -21257.006991   -502.640818
PG31   6707.029019  21651.590410  13312.184032   -220.459729
PG32 -13434.056072  15470.826002  16975.279839   -525.513604
PJ02 -31759.590417  25225.511421  16733.646701     -1.609259
PJ03 -25410.285010  17417.492312 -24193.360061     -0.239489
PJ04 -24192.329098  34711.784585   2884.774620     97.271891
PR01 -11953.754038  17721.714024  13929.635647     61.851712
PR02   4176.634830  10260.674163  23015.417092    -22.588483
PR03  17822.274539  -2512.892839  18146.084047     81.911982
PR04  21372.897586 -13504.236308   3466.112941    195.725088
PR05  13481.436608 -17228.136021 -13128.488771    116.117040
PR07 -18194.569594   3119.901869 -17540.945629     60.675838
PR08 -21221.831000  13761.058145  -3127.195951    -71.751365
PR09  -7545.567143 -22733.909627   8673.850144    132.389448
PR11  -9372.154561   9016.758462  21961.776138   -110.230849
PR12  -1600.743584  23763.719138   9148.314574     29.339713
PR13   6370.242280  23758.569112  -6765.858234    -37.314809
PR14  11399.905872   8859.640409 -21016.330908     24.978848
PR15   9184.273385 -10279.137672 -21435.108293     87.671787
PR16   1494.012741 -23640.132428  -9400.644077     16.908319
PR17  23655.072516   8974.404984   3058.028434      1.776455
PR18  18369.735535   -388.453574  17724.317135     92.702793
PR19   5336.449324  -8915.134945  23289.555766   -240.623209
PR20 -14815.885174 -14611.348789  14731.488433    -96.960592
PR21 -23656.481579  -8570.815966  -4301.323343    -24.362558
PR22 -17852.481235    709.466306 -18179.682338     99.037566
PR24  15708.457023  14311.886797 -14082.485662    -17.406961
PR25 -23272.616796 -10050.935230  -2950.224652     46.341819
EOF
